QIANFAN-33              
1 61566U 24185Q   25288.93846899  .00000659  00000+0  46754-3 0  9993
2 61566  88.9746  85.2486 0008202 135.3254 224.8585 13.96474983 61090
QIANFAN-34              
1 61567U 24185R   25288.99807781  .00000706  00000+0  45240-3 0  9999
2 61567  88.9725  84.8820 0007222 136.9964 223.1782 14.02227484 61261
QIANFAN-35              
1 61568U 24185S   25288.95309990  .00001364  00000+0  54618-3 0  9995
2 61568  88.9753  83.6583 0008628 110.4012 249.8110 14.27818610 61936
QIANFAN-36              
1 61569U 24185T   25288.94566198  .00000217  00000+0  29528-3 0  9998
2 61569  88.9732  87.0622 0005446 193.6959 166.4048 13.55564178 60091
QIANFAN-37              
1 62238U 24232B   25288.92595628  .00000164  00000+0  23604-3 0  9993
2 62238  89.0018  47.1529 0001178 114.8253 245.3020 13.50971149 91363
QIANFAN-38              
1 62239U 24232C   25288.95062803  .00000175  00000+0  25188-3 0  9992
2 62239  89.0019  47.0623 0014312   9.4775 350.6643 13.50979631 91423
QIANFAN-39              
1 62240U 24232D   25288.92701625  .00000840  00000+0  35075-3 0  9998
2 62240  89.0022  43.9071 0014042 266.5207  93.4380 14.25291737 93156
QIANFAN-40              
1 62241U 24232E   25288.90945260  .00000177  00000+0  25522-3 0  9991
2 62241  89.0053  46.6348 0013600  18.1070 342.0563 13.50979225 91781
