<?xml version="1.0" encoding="UTF-8"?>
<ndm xmlns:xsi="http://www.w3.org/2001/XMLSchema-instance" xsi:noNamespaceSchemaLocation="https://sanaregistry.org/r/ndmxml_unqualified/ndmxml-2.0.0-master-2.0.xsd">
<omm id="CCSDS_OMM_VERS" version="2.0">
<header><CREATION_DATE/><ORIGINATOR/></header><body><segment><metadata><OBJECT_NAME>QIANFAN-33</OBJECT_NAME><OBJECT_ID>2024-185Q</OBJECT_ID><CENTER_NAME>EARTH</CENTER_NAME><REF_FRAME>TEME</REF_FRAME><TIME_SYSTEM>UTC</TIME_SYSTEM><MEAN_ELEMENT_THEORY>SGP4</MEAN_ELEMENT_THEORY></metadata><data><meanElements><EPOCH>2025-10-15T22:31:23.720736</EPOCH><MEAN_MOTION>13.96474983</MEAN_MOTION><ECCENTRICITY>.00082027</ECCENTRICITY><INCLINATION>88.9746</INCLINATION><RA_OF_ASC_NODE>85.2486</RA_OF_ASC_NODE><ARG_OF_PERICENTER>135.3254</ARG_OF_PERICENTER><MEAN_ANOMALY>224.8585</MEAN_ANOMALY></meanElements><tleParameters><EPHEMERIS_TYPE>0</EPHEMERIS_TYPE><CLASSIFICATION_TYPE>U</CLASSIFICATION_TYPE><NORAD_CAT_ID>61566</NORAD_CAT_ID><ELEMENT_SET_NO>999</ELEMENT_SET_NO><REV_AT_EPOCH>6109</REV_AT_EPOCH><BSTAR>.46753996E-3</BSTAR><MEAN_MOTION_DOT>.659E-5</MEAN_MOTION_DOT><MEAN_MOTION_DDOT>0</MEAN_MOTION_DDOT></tleParameters></data></segment></body></omm>
<omm id="CCSDS_OMM_VERS" version="2.0">
<header><CREATION_DATE/><ORIGINATOR/></header><body><segment><metadata><OBJECT_NAME>QIANFAN-34</OBJECT_NAME><OBJECT_ID>2024-185R</OBJECT_ID><CENTER_NAME>EARTH</CENTER_NAME><REF_FRAME>TEME</REF_FRAME><TIME_SYSTEM>UTC</TIME_SYSTEM><MEAN_ELEMENT_THEORY>SGP4</MEAN_ELEMENT_THEORY></metadata><data><meanElements><EPOCH>2025-10-15T23:57:13.922784</EPOCH><MEAN_MOTION>14.02227484</MEAN_MOTION><ECCENTRICITY>.00072225</ECCENTRICITY><INCLINATION>88.9725</INCLINATION><RA_OF_ASC_NODE>84.8820</RA_OF_ASC_NODE><ARG_OF_PERICENTER>136.9964</ARG_OF_PERICENTER><MEAN_ANOMALY>223.1782</MEAN_ANOMALY></meanElements><tleParameters><EPHEMERIS_TYPE>0</EPHEMERIS_TYPE><CLASSIFICATION_TYPE>U</CLASSIFICATION_TYPE><NORAD_CAT_ID>61567</NORAD_CAT_ID><ELEMENT_SET_NO>999</ELEMENT_SET_NO><REV_AT_EPOCH>6126</REV_AT_EPOCH><BSTAR>.4523969E-3</BSTAR><MEAN_MOTION_DOT>.706E-5</MEAN_MOTION_DOT><MEAN_MOTION_DDOT>0</MEAN_MOTION_DDOT></tleParameters></data></segment></body></omm>
<omm id="CCSDS_OMM_VERS" version="2.0">
<header><CREATION_DATE/><ORIGINATOR/></header><body><segment><metadata><OBJECT_NAME>QIANFAN-35</OBJECT_NAME><OBJECT_ID>2024-185S</OBJECT_ID><CENTER_NAME>EARTH</CENTER_NAME><REF_FRAME>TEME</REF_FRAME><TIME_SYSTEM>UTC</TIME_SYSTEM><MEAN_ELEMENT_THEORY>SGP4</MEAN_ELEMENT_THEORY></metadata><data><meanElements><EPOCH>2025-10-15T22:52:27.831360</EPOCH><MEAN_MOTION>14.27818610</MEAN_MOTION><ECCENTRICITY>.00086281</ECCENTRICITY><INCLINATION>88.9753</INCLINATION><RA_OF_ASC_NODE>83.6583</RA_OF_ASC_NODE><ARG_OF_PERICENTER>110.4012</ARG_OF_PERICENTER><MEAN_ANOMALY>249.8110</MEAN_ANOMALY></meanElements><tleParameters><EPHEMERIS_TYPE>0</EPHEMERIS_TYPE><CLASSIFICATION_TYPE>U</CLASSIFICATION_TYPE><NORAD_CAT_ID>61568</NORAD_CAT_ID><ELEMENT_SET_NO>999</ELEMENT_SET_NO><REV_AT_EPOCH>6193</REV_AT_EPOCH><BSTAR>.54617874E-3</BSTAR><MEAN_MOTION_DOT>.1364E-4</MEAN_MOTION_DOT><MEAN_MOTION_DDOT>0</MEAN_MOTION_DDOT></tleParameters></data></segment></body></omm>
<omm id="CCSDS_OMM_VERS" version="2.0">
<header><CREATION_DATE/><ORIGINATOR/></header><body><segment><metadata><OBJECT_NAME>QIANFAN-36</OBJECT_NAME><OBJECT_ID>2024-185T</OBJECT_ID><CENTER_NAME>EARTH</CENTER_NAME><REF_FRAME>TEME</REF_FRAME><TIME_SYSTEM>UTC</TIME_SYSTEM><MEAN_ELEMENT_THEORY>SGP4</MEAN_ELEMENT_THEORY></metadata><data><meanElements><EPOCH>2025-10-15T22:41:45.195072</EPOCH><MEAN_MOTION>13.55564178</MEAN_MOTION><ECCENTRICITY>.00054469</ECCENTRICITY><INCLINATION>88.9732</INCLINATION><RA_OF_ASC_NODE>87.0622</RA_OF_ASC_NODE><ARG_OF_PERICENTER>193.6959</ARG_OF_PERICENTER><MEAN_ANOMALY>166.4048</MEAN_ANOMALY></meanElements><tleParameters><EPHEMERIS_TYPE>0</EPHEMERIS_TYPE><CLASSIFICATION_TYPE>U</CLASSIFICATION_TYPE><NORAD_CAT_ID>61569</NORAD_CAT_ID><ELEMENT_SET_NO>999</ELEMENT_SET_NO><REV_AT_EPOCH>6009</REV_AT_EPOCH><BSTAR>.29527794E-3</BSTAR><MEAN_MOTION_DOT>.217E-5</MEAN_MOTION_DOT><MEAN_MOTION_DDOT>0</MEAN_MOTION_DDOT></tleParameters></data></segment></body></omm>
<omm id="CCSDS_OMM_VERS" version="2.0">
<header><CREATION_DATE/><ORIGINATOR/></header><body><segment><metadata><OBJECT_NAME>QIANFAN-37</OBJECT_NAME><OBJECT_ID>2024-232B</OBJECT_ID><CENTER_NAME>EARTH</CENTER_NAME><REF_FRAME>TEME</REF_FRAME><TIME_SYSTEM>UTC</TIME_SYSTEM><MEAN_ELEMENT_THEORY>SGP4</MEAN_ELEMENT_THEORY></metadata><data><meanElements><EPOCH>2025-10-15T22:13:22.622592</EPOCH><MEAN_MOTION>13.50971149</MEAN_MOTION><ECCENTRICITY>.00011781</ECCENTRICITY><INCLINATION>89.0018</INCLINATION><RA_OF_ASC_NODE>47.1529</RA_OF_ASC_NODE><ARG_OF_PERICENTER>114.8253</ARG_OF_PERICENTER><MEAN_ANOMALY>245.3020</MEAN_ANOMALY></meanElements><tleParameters><EPHEMERIS_TYPE>0</EPHEMERIS_TYPE><CLASSIFICATION_TYPE>U</CLASSIFICATION_TYPE><NORAD_CAT_ID>62238</NORAD_CAT_ID><ELEMENT_SET_NO>999</ELEMENT_SET_NO><REV_AT_EPOCH>9136</REV_AT_EPOCH><BSTAR>.23604351E-3</BSTAR><MEAN_MOTION_DOT>.164E-5</MEAN_MOTION_DOT><MEAN_MOTION_DDOT>0</MEAN_MOTION_DDOT></tleParameters></data></segment></body></omm>
<omm id="CCSDS_OMM_VERS" version="2.0">
<header><CREATION_DATE/><ORIGINATOR/></header><body><segment><metadata><OBJECT_NAME>QIANFAN-38</OBJECT_NAME><OBJECT_ID>2024-232C</OBJECT_ID><CENTER_NAME>EARTH</CENTER_NAME><REF_FRAME>TEME</REF_FRAME><TIME_SYSTEM>UTC</TIME_SYSTEM><MEAN_ELEMENT_THEORY>SGP4</MEAN_ELEMENT_THEORY></metadata><data><meanElements><EPOCH>2025-10-15T22:48:54.261792</EPOCH><MEAN_MOTION>13.50979631</MEAN_MOTION><ECCENTRICITY>.00143122</ECCENTRICITY><INCLINATION>89.0019</INCLINATION><RA_OF_ASC_NODE>47.0623</RA_OF_ASC_NODE><ARG_OF_PERICENTER>9.4775</ARG_OF_PERICENTER><MEAN_ANOMALY>350.6643</MEAN_ANOMALY></meanElements><tleParameters><EPHEMERIS_TYPE>0</EPHEMERIS_TYPE><CLASSIFICATION_TYPE>U</CLASSIFICATION_TYPE><NORAD_CAT_ID>62239</NORAD_CAT_ID><ELEMENT_SET_NO>999</ELEMENT_SET_NO><REV_AT_EPOCH>9142</REV_AT_EPOCH><BSTAR>.25188006E-3</BSTAR><MEAN_MOTION_DOT>.175E-5</MEAN_MOTION_DOT><MEAN_MOTION_DDOT>0</MEAN_MOTION_DDOT></tleParameters></data></segment></body></omm>
<omm id="CCSDS_OMM_VERS" version="2.0">
<header><CREATION_DATE/><ORIGINATOR/></header><body><segment><metadata><OBJECT_NAME>QIANFAN-39</OBJECT_NAME><OBJECT_ID>2024-232D</OBJECT_ID><CENTER_NAME>EARTH</CENTER_NAME><REF_FRAME>TEME</REF_FRAME><TIME_SYSTEM>UTC</TIME_SYSTEM><MEAN_ELEMENT_THEORY>SGP4</MEAN_ELEMENT_THEORY></metadata><data><meanElements><EPOCH>2025-10-15T22:14:54.204000</EPOCH><MEAN_MOTION>14.25291737</MEAN_MOTION><ECCENTRICITY>.00140421</ECCENTRICITY><INCLINATION>89.0022</INCLINATION><RA_OF_ASC_NODE>43.9071</RA_OF_ASC_NODE><ARG_OF_PERICENTER>266.5207</ARG_OF_PERICENTER><MEAN_ANOMALY>93.4380</MEAN_ANOMALY></meanElements><tleParameters><EPHEMERIS_TYPE>0</EPHEMERIS_TYPE><CLASSIFICATION_TYPE>U</CLASSIFICATION_TYPE><NORAD_CAT_ID>62240</NORAD_CAT_ID><ELEMENT_SET_NO>999</ELEMENT_SET_NO><REV_AT_EPOCH>9315</REV_AT_EPOCH><BSTAR>.35074766E-3</BSTAR><MEAN_MOTION_DOT>.84E-5</MEAN_MOTION_DOT><MEAN_MOTION_DDOT>0</MEAN_MOTION_DDOT></tleParameters></data></segment></body></omm>
<omm id="CCSDS_OMM_VERS" version="2.0">
<header><CREATION_DATE/><ORIGINATOR/></header><body><segment><metadata><OBJECT_NAME>QIANFAN-40</OBJECT_NAME><OBJECT_ID>2024-232E</OBJECT_ID><CENTER_NAME>EARTH</CENTER_NAME><REF_FRAME>TEME</REF_FRAME><TIME_SYSTEM>UTC</TIME_SYSTEM><MEAN_ELEMENT_THEORY>SGP4</MEAN_ELEMENT_THEORY></metadata><data><meanElements><EPOCH>2025-10-15T21:49:36.704640</EPOCH><MEAN_MOTION>13.50979225</MEAN_MOTION><ECCENTRICITY>.00136002</ECCENTRICITY><INCLINATION>89.0053</INCLINATION><RA_OF_ASC_NODE>46.6348</RA_OF_ASC_NODE><ARG_OF_PERICENTER>18.1070</ARG_OF_PERICENTER><MEAN_ANOMALY>342.0563</MEAN_ANOMALY></meanElements><tleParameters><EPHEMERIS_TYPE>0</EPHEMERIS_TYPE><CLASSIFICATION_TYPE>U</CLASSIFICATION_TYPE><NORAD_CAT_ID>62241</NORAD_CAT_ID><ELEMENT_SET_NO>999</ELEMENT_SET_NO><REV_AT_EPOCH>9178</REV_AT_EPOCH><BSTAR>.25522241E-3</BSTAR><MEAN_MOTION_DOT>.177E-5</MEAN_MOTION_DOT><MEAN_MOTION_DDOT>0</MEAN_MOTION_DDOT></tleParameters></data></segment></body></omm>

</ndm>
